{
    "links": {
        "self": "http://www.neowsapp.com/rest/v1/neo/3462071?api_key=iIulBulltgU6a56xZRHN4H3l9WmuAYTsLGpBGhQ2"
    },
    "id": "3462071",
    "neo_reference_id": "3462071",
    "name": "(2009 KR21)",
    "designation": "2009 KR21",
    "nasa_jpl_url": "http://ssd.jpl.nasa.gov/sbdb.cgi?sstr=3462071",
    "absolute_magnitude_h": 26.7,
    "estimated_diameter": {
        "kilometers": {
            "estimated_diameter_min": 0.0121494041,
            "estimated_diameter_max": 0.0271668934
        },
        "meters": {
            "estimated_diameter_min": 12.14940408,
            "estimated_diameter_max": 27.1668934089
        },
        "miles": {
            "estimated_diameter_min": 0.0075492874,
            "estimated_diameter_max": 0.0168807197
        },
        "feet": {
            "estimated_diameter_min": 39.8602508817,
            "estimated_diameter_max": 89.1302305717
        }
    },
    "is_potentially_hazardous_asteroid": false,
    "close_approach_data": [
        {
            "close_approach_date": "2009-06-01",
            "close_approach_date_full": "2009-Jun-01 06:09",
            "epoch_date_close_approach": 1243836540000,
            "relative_velocity": {
                "kilometers_per_second": "13.8676332056",
                "kilometers_per_hour": "49923.4795400916",
                "miles_per_hour": "31020.5087175641"
            },
            "miss_distance": {
                "astronomical": "0.0010686802",
                "lunar": "0.4157165978",
                "kilometers": "159872.281631174",
                "miles": "99340.0293472412"
            },
            "orbiting_body": "Moon"
        },
        {
            "close_approach_date": "2009-06-01",
            "close_approach_date_full": "2009-Jun-01 10:07",
            "epoch_date_close_approach": 1243850820000,
            "relative_velocity": {
                "kilometers_per_second": "12.9775275054",
                "kilometers_per_hour": "46719.0990195714",
                "miles_per_hour": "29029.4312769109"
            },
            "miss_distance": {
                "astronomical": "0.001895444",
                "lunar": "0.737327716",
                "kilometers": "283554.38510428",
                "miles": "176192.524747864"
            },
            "orbiting_body": "Earth"
        }
    ],
    "orbital_data": {
        "orbit_id": "7",
        "orbit_determination_date": "2017-04-06 09:00:29",
        "first_observation_date": "2009-05-31",
        "last_observation_date": "2009-05-31",
        "data_arc_in_days": null,
        "observations_used": 17,
        "orbit_uncertainty": "8",
        "minimum_orbit_intersection": ".00110069",
        "jupiter_tisserand_invariant": "3.992",
        "epoch_osculation": "2454983.5",
        "eccentricity": ".5195001760652034",
        "semi_major_axis": "1.730479316244985",
        "inclination": "2.360013679787353",
        "ascending_node_longitude": "69.30949870347732",
        "orbital_period": "831.4727985298239",
        "perihelion_distance": ".8314950067785226",
        "perihelion_argument": "243.2294129777981",
        "aphelion_distance": "2.629463625711448",
        "perihelion_time": "2455028.182118974714",
        "mean_anomaly": "340.6541322105319",
        "mean_motion": ".4329666594463911",
        "equinox": "J2000",
        "orbit_class": {
            "orbit_class_type": "APO",
            "orbit_class_description": "Near-Earth asteroid orbits which cross the Earth’s orbit similar to that of 1862 Apollo",
            "orbit_class_range": "a (semi-major axis) > 1.0 AU; q (perihelion) < 1.017 AU"
        }
    },
    "is_sentry_object": false
}